ISS (ZARYA)             
1 25544U 98067A   26031.79058160  .00007092  00000+0  13988-3 0  9997
2 25544  51.6322 254.7614 0011121  51.2288 308.9692 15.48310229550611
CSS (TIANHE)            
1 48274U 21035A   26031.38642198  .00028253  00000+0  32371-3 0  9997
2 48274  41.4674  74.8264 0008910  46.9753 313.1831 15.61427822271789
ISS (NAUKA)             
1 49044U 21066A   26031.01605124  .00007848  00000+0  15394-3 0  9998
2 49044  51.6322 258.5893 0011098  48.1305 312.0628 15.48297710230441
FREGAT DEB              
1 49271U 11037PF  26031.32753164  .00037773  00000+0  66212-1 0  9992
2 49271  51.6511  52.4676 0919449 333.8142  21.8846 12.37389576208060
CSS (WENTIAN)           
1 53239U 22085A   26030.17114424  .00032690  00000+0  37481-3 0  9999
2 53239  41.4674  82.2287 0009086  36.5911 323.5548 15.61350410173846
CSS (MENGTIAN)          
1 54216U 22143A   26030.17114424  .00032690  00000+0  37481-3 0  9990
2 54216  41.4674  82.2287 0009086  36.5911 323.5548 15.61350410158643
PROGRESS-MS 31          
1 64751U 25146A   26031.01605124  .00007848  00000+0  15394-3 0  9993
2 64751  51.6322 258.5893 0011098  48.1305 312.0628 15.48297710  6758
TIANZHOU-9              
1 64786U 25149A   26030.17114424  .00032690  00000+0  37481-3 0  9992
2 64786  41.4674  82.2287 0009086  36.5911 323.5548 15.61350410255307
DRAGON CRS-33           
1 65304U 25186A   26031.01605124  .00007848  00000+0  15394-3 0  9992
2 65304  51.6322 258.5893 0011098  48.1305 312.0628 15.48297710   117
PROGRESS-MS 32          
1 65586U 25204A   26031.01605124  .00007848  00000+0  15394-3 0  9995
2 65586  51.6322 258.5893 0011098  48.1305 312.0628 15.48297710   276
CYGNUS NG-23            
1 65616U 25208A   26031.01605124  .00007848  00000+0  15394-3 0  9993
2 65616  51.6322 258.5893 0011098  48.1305 312.0628 15.48297710   225
DRAGONFLY               
1 65729U 98067XH  26031.05194254  .08662331  12285-4  96629-3 0  9997
2 65729  51.6000 237.6139 0006568 265.0285  94.9990 16.36242872 20998
